{
  "type": "FeatureCollection",
  "features": [
    {
      "type": "Feature",
      "properties": {
        "norad_id": 39227,
        "name": "ARIRANG-5 (KOMPSAT-5)",
        "group": "resource",
        "lat": 21.893554672875055,
        "lon": 1.4342345111672574,
        "alt_km": 553.9783233407707,
        "timestamp": "2025-12-20T03:42:47.049081+00:00",
        "meta_object_name": "ARIRANG-5 (KOMPSAT-5)",
        "meta_object_id": "2013-042A",
        "meta_epoch": "2025-12-19T20:37:46.384032",
        "meta_mean_motion": 15.04537678,
        "meta_eccentricity": 0.0003446,
        "meta_inclination": 97.6153,
        "meta_ra_of_asc_node": 178.0613,
        "meta_arg_of_pericenter": 37.9391,
        "meta_mean_anomaly": 322.2077,
        "meta_ephemeris_type": 0,
        "meta_classification_type": "U",
        "meta_norad_cat_id": 39227,
        "meta_element_set_no": 999,
        "meta_rev_at_epoch": 67689,
        "meta_bstar": 0.00017163,
        "meta_mean_motion_dot": 2.344e-05,
        "meta_mean_motion_ddot": 0,
        "tle_line1": "1 39227U 13042A   25353.85956463  .00002344  00000+0  17163-3 0  9990",
        "tle_line2": "2 39227  97.6153 178.0613 0003446  37.9391 322.2077 15.04537678676896"
      },
      "geometry": {
        "type": "Point",
        "coordinates": [
          1.4342345111672574,
          21.893554672875055
        ]
      }
    },
    {
      "type": "Feature",
      "properties": {
        "norad_id": 39418,
        "name": "SKYSAT-A",
        "group": "resource",
        "lat": 0.17468727211755117,
        "lon": 44.115360867158536,
        "alt_km": 546.9740947447972,
        "timestamp": "2025-12-20T03:42:47.049092+00:00",
        "meta_object_name": "SKYSAT-A",
        "meta_object_id": "2013-066C",
        "meta_epoch": "2025-12-19T15:00:10.317888",
        "meta_mean_motion": 15.11650665,
        "meta_eccentricity": 0.0021223,
        "meta_inclination": 97.4099,
        "meta_ra_of_asc_node": 43.6246,
        "meta_arg_of_pericenter": 211.5864,
        "meta_mean_anomaly": 148.4094,
        "meta_ephemeris_type": 0,
        "meta_classification_type": "U",
        "meta_norad_cat_id": 39418,
        "meta_element_set_no": 999,
        "meta_rev_at_epoch": 66134,
        "meta_bstar": 0.0001809,
        "meta_mean_motion_dot": 3.028e-05,
        "meta_mean_motion_ddot": 0,
        "tle_line1": "1 39418U 13066C   25353.62511942  .00003028  00000+0  18090-3 0  9992",
        "tle_line2": "2 39418  97.4099  43.6246 0021223 211.5864 148.4094 15.11650665661343"
      },
      "geometry": {
        "type": "Point",
        "coordinates": [
          44.115360867158536,
          0.17468727211755117
        ]
      }
    },
    {
      "type": "Feature",
      "properties": {
        "norad_id": 39419,
        "name": "DUBAISAT-2",
        "group": "resource",
        "lat": 55.34021588961175,
        "lon": -26.56771832560575,
        "alt_km": 539.5396486161444,
        "timestamp": "2025-12-20T03:42:47.049102+00:00",
        "meta_object_name": "DUBAISAT-2",
        "meta_object_id": "2013-066D",
        "meta_epoch": "2025-12-19T21:05:49.597728",
        "meta_mean_motion": 15.08418452,
        "meta_eccentricity": 0.0009966,
        "meta_inclination": 97.4443,
        "meta_ra_of_asc_node": 344.0663,
        "meta_arg_of_pericenter": 294.155,
        "meta_mean_anomaly": 65.8636,
        "meta_ephemeris_type": 0,
        "meta_classification_type": "U",
        "meta_norad_cat_id": 39419,
        "meta_element_set_no": 999,
        "meta_rev_at_epoch": 65934,
        "meta_bstar": 0.00017712,
        "meta_mean_motion_dot": 2.697e-05,
        "meta_mean_motion_ddot": 0,
        "tle_line1": "1 39419U 13066D   25353.87904627  .00002697  00000+0  17712-3 0  9997",
        "tle_line2": "2 39419  97.4443 344.0663 0009966 294.1550  65.8636 15.08418452659340"
      },
      "geometry": {
        "type": "Point",
        "coordinates": [
          -26.56771832560575,
          55.34021588961175
        ]
      }
    },
    {
      "type": "Feature",
      "properties": {
        "norad_id": 39574,
        "name": "GPM-CORE",
        "group": "resource",
        "lat": 63.66131853301739,
        "lon": -62.84480627604435,
        "alt_km": 430.9342934292072,
        "timestamp": "2025-12-20T03:42:47.049112+00:00",
        "meta_object_name": "GPM-CORE",
        "meta_object_id": "2014-009C",
        "meta_epoch": "2025-12-19T19:31:05.935296",
        "meta_mean_motion": 15.44567057,
        "meta_eccentricity": 0.0009425,
        "meta_inclination": 64.9719,
        "meta_ra_of_asc_node": 188.9943,
        "meta_arg_of_pericenter": 247.8879,
        "meta_mean_anomaly": 112.1261,
        "meta_ephemeris_type": 0,
        "meta_classification_type": "U",
        "meta_norad_cat_id": 39574,
        "meta_element_set_no": 999,
        "meta_rev_at_epoch": 67010,
        "meta_bstar": 0.00012794,
        "meta_mean_motion_dot": 5.732e-05,
        "meta_mean_motion_ddot": 0,
        "tle_line1": "1 39574U 14009C   25353.81326314  .00005732  00000+0  12794-3 0  9990",
        "tle_line2": "2 39574  64.9719 188.9943 0009425 247.8879 112.1261 15.44567057670105"
      },
      "geometry": {
        "type": "Point",
        "coordinates": [
          -62.84480627604435,
          63.66131853301739
        ]
      }
    },
    {
      "type": "Feature",
      "properties": {
        "norad_id": 39634,
        "name": "SENTINEL-1A",
        "group": "resource",
        "lat": 7.181530743032662,
        "lon": -179.67477658268018,
        "alt_km": 697.7351305140846,
        "timestamp": "2025-12-20T03:42:47.049122+00:00",
        "meta_object_name": "SENTINEL-1A",
        "meta_object_id": "2014-016A",
        "meta_epoch": "2025-12-19T20:20:30.317568",
        "meta_mean_motion": 14.59201336,
        "meta_eccentricity": 0.0001271,
        "meta_inclination": 98.1796,
        "meta_ra_of_asc_node": 358.9842,
        "meta_arg_of_pericenter": 84.8287,
        "meta_mean_anomaly": 275.3057,
        "meta_ephemeris_type": 0,
        "meta_classification_type": "U",
        "meta_norad_cat_id": 39634,
        "meta_element_set_no": 999,
        "meta_rev_at_epoch": 62386,
        "meta_bstar": -5.9089e-07,
        "meta_mean_motion_dot": -4.9e-07,
        "meta_mean_motion_ddot": 0,
        "tle_line1": "1 39634U 14016A   25353.84757312 -.00000049  00000+0 -59089-6 0  9993",
        "tle_line2": "2 39634  98.1796 358.9842 0001271  84.8287 275.3057 14.59201336623862"
      },
      "geometry": {
        "type": "Point",
        "coordinates": [
          -179.67477658268018,
          7.181530743032662
        ]
      }
    },
    {
      "type": "Feature",
      "properties": {
        "norad_id": 39731,
        "name": "KAZEOSAT 1",
        "group": "resource",
        "lat": 49.6298531866959,
        "lon": 55.95630655959322,
        "alt_km": 746.5544305359726,
        "timestamp": "2025-12-20T03:42:47.049132+00:00",
        "meta_object_name": "KAZEOSAT 1",
        "meta_object_id": "2014-024A",
        "meta_epoch": "2025-12-19T20:49:09.814944",
        "meta_mean_motion": 14.4206633,
        "meta_eccentricity": 0.0001164,
        "meta_inclination": 98.3432,
        "meta_ra_of_asc_node": 65.6153,
        "meta_arg_of_pericenter": 95.8659,
        "meta_mean_anomaly": 264.2664,
        "meta_ephemeris_type": 0,
        "meta_classification_type": "U",
        "meta_norad_cat_id": 39731,
        "meta_element_set_no": 999,
        "meta_rev_at_epoch": 61271,
        "meta_bstar": 6.2491e-05,
        "meta_mean_motion_dot": 1.62e-06,
        "meta_mean_motion_ddot": 0,
        "tle_line1": "1 39731U 14024A   25353.86747471  .00000162  00000+0  62491-4 0  9990",
        "tle_line2": "2 39731  98.3432  65.6153 0001164  95.8659 264.2664 14.42066330612710"
      },
      "geometry": {
        "type": "Point",
        "coordinates": [
          55.95630655959322,
          49.6298531866959
        ]
      }
    },
    {
      "type": "Feature",
      "properties": {
        "norad_id": 39766,
        "name": "ALOS-2",
        "group": "resource",
        "lat": -31.137516971364803,
        "lon": -95.93069007980448,
        "alt_km": 637.453209934416,
        "timestamp": "2025-12-20T03:42:47.049142+00:00",
        "meta_object_name": "ALOS-2",
        "meta_object_id": "2014-029A",
        "meta_epoch": "2025-12-19T20:16:04.780128",
        "meta_mean_motion": 14.7947012,
        "meta_eccentricity": 0.0001445,
        "meta_inclination": 97.9232,
        "meta_ra_of_asc_node": 88.5899,
        "meta_arg_of_pericenter": 98.5313,
        "meta_mean_anomaly": 261.6062,
        "meta_ephemeris_type": 0,
        "meta_classification_type": "U",
        "meta_norad_cat_id": 39766,
        "meta_element_set_no": 999,
        "meta_rev_at_epoch": 62506,
        "meta_bstar": 0.00029263,
        "meta_mean_motion_dot": 2.134e-05,
        "meta_mean_motion_ddot": 0,
        "tle_line1": "1 39766U 14029A   25353.84449977  .00002134  00000+0  29263-3 0  9991",
        "tle_line2": "2 39766  97.9232  88.5899 0001445  98.5313 261.6062 14.79470120625062"
      },
      "geometry": {
        "type": "Point",
        "coordinates": [
          -95.93069007980448,
          -31.137516971364803
        ]
      }
    }
  ]
}